[{"OBJECT_NAME":"STARLINK-30567","OBJECT_ID":"2023-158S","EPOCH":"2026-03-09T05:08:04.180992","MEAN_MOTION":15.27587017,"ECCENTRICITY":9.171e-5,"INCLINATION":43.0022,"RA_OF_ASC_NODE":30.0257,"ARG_OF_PERICENTER":296.0738,"MEAN_ANOMALY":64.0019,"EPHEMERIS_TYPE":0,"CLASSIFICATION_TYPE":"U","NORAD_CAT_ID":58067,"ELEMENT_SET_NO":999,"REV_AT_EPOCH":13349,"BSTAR":4.8509402e-5,"MEAN_MOTION_DOT":1.073e-5,"MEAN_MOTION_DDOT":0},{"OBJECT_NAME":"TIANMU-1 20","OBJECT_ID":"2023-208B","EPOCH":"2026-03-09T21:50:45.859200","MEAN_MOTION":15.31029249,"ECCENTRICITY":0.00061925,"INCLINATION":97.4323,"RA_OF_ASC_NODE":185.4313,"ARG_OF_PERICENTER":324.1763,"MEAN_ANOMALY":35.9062,"EPHEMERIS_TYPE":0,"CLASSIFICATION_TYPE":"U","NORAD_CAT_ID":58661,"ELEMENT_SET_NO":999,"REV_AT_EPOCH":12222,"BSTAR":0.0003681641,"MEAN_MOTION_DOT":0.00010969,"MEAN_MOTION_DDOT":0}]
